ALOS-4 (DAICHI-4)       
1 60182U 24123A   24230.81072149  .00006776  00000+0  91311-3 0  9995
2 60182  97.9219 326.5879 0001474  96.5269 263.6110 14.79485192  7050
